OBJECT_NAME,OBJECT_ID,EPOCH,MEAN_MOTION,ECCENTRICITY,INCLINATION,RA_OF_ASC_NODE,ARG_OF_PERICENTER,MEAN_ANOMALY,EPHEMERIS_TYPE,CLASSIFICATION_TYPE,NORAD_CAT_ID,ELEMENT_SET_NO,REV_AT_EPOCH,BSTAR,MEAN_MOTION_DOT,MEAN_MOTION_DDOT
PELICAN-9,2026-100AR,2026-07-08T11:10:52.254048,15.21667123,.00026177,97.3812,86.8696,3.6085,356.5170,0,U,69019,999,1004,.68684928E-4,.1484E-4,0
SELENE,2026-100AS,2026-07-08T12:08:45.725856,15.20113391,.00021061,97.4016,86.8827,264.4757,95.6238,0,U,69020,999,1004,.18857285E-3,.4007E-4,0
HELIOS,2026-100AT,2026-07-08T12:00:46.050336,15.20303360,.00026437,97.4000,86.8736,275.8708,84.2225,0,U,69021,999,1004,.20358882E-3,.4356E-4,0
HYDRA-3,2026-100AU,2026-07-08T10:29:04.683264,15.20159390,.00029407,97.4003,86.8057,282.8275,77.2631,0,U,69022,999,1003,.15457467E-3,.3276E-4,0
QUBE-II,2026-100AV,2026-07-08T03:54:36.186048,15.20546847,.00012076,97.4045,86.6083,312.5003,47.6130,0,U,69023,999,999,.20160069E-3,.4343E-4,0
BALKAN-2,2026-100AW,2026-07-08T10:18:48.885408,15.20305718,.00014933,97.4043,86.8609,305.2626,54.8469,0,U,69024,999,1003,.13682498E-3,.2905E-4,0
STARLINK-37592,2026-101A,2026-07-08T08:39:38.476800,15.33451472,.00013468,97.2871,43.8450,76.6943,283.4450,0,U,69025,999,981,.54827192E-3,.1767E-3,0
STARLINK-37637,2026-101B,2026-07-08T07:52:39.162720,15.33441160,.00013841,97.2866,43.8893,96.2583,263.8818,0,U,69026,999,981,.54139205E-3,.17441E-3,0
STARLINK-37548,2026-101C,2026-07-08T08:16:09.032736,15.33438550,.00018533,97.2863,43.8687,97.4712,262.6741,0,U,69027,999,981,.32273978E-3,.10357E-3,0
STARLINK-37634,2026-101D,2026-07-08T13:45:00.069408,15.33442417,.00013524,97.2846,44.1696,85.6327,274.5071,0,U,69028,999,985,.74215313E-3,.23959E-3,0
STARLINK-37635,2026-101E,2026-07-08T13:09:48.233952,15.33450140,.00020308,97.2874,44.0499,103.8137,256.3332,0,U,69029,999,984,.49512372E-3,.15946E-3,0
STARLINK-37615,2026-101F,2026-07-08T14:20:15.383328,15.33472333,.00020815,97.2836,44.1381,110.9531,249.1935,0,U,69030,999,985,.40610039E-3,.1307E-3,0
STARLINK-37240,2026-101G,2026-07-08T07:40:54.590592,15.33438686,.00015493,97.2855,43.8999,89.3198,270.8222,0,U,69031,999,981,.31169375E-3,.9999E-4,0
STARLINK-37596,2026-101H,2026-07-08T13:33:17.678016,15.33439178,.00031356,97.2847,44.1764,96.4322,263.7277,0,U,69032,999,985,.38890159E-3,.125E-3,0
STARLINK-37591,2026-101J,2026-07-08T14:28:05.220480,15.33463839,.00009698,97.2848,44.1274,114.7990,245.3354,0,U,69033,999,985,.51540443E-3,.16611E-3,0
STARLINK-37611,2026-101K,2026-07-08T08:23:58.091424,15.33444232,.00020156,97.2858,43.8615,95.2271,264.9202,0,U,69034,999,981,.33098237E-3,.10625E-3,0
STARLINK-37512,2026-101L,2026-07-08T01:09:21.490560,15.33485883,.00017758,97.2867,43.6550,85.5772,274.5673,0,U,69035,999,977,.65143711E-3,.21042E-3,0
STARLINK-37609,2026-101M,2026-07-08T07:48:43.459200,15.33452085,.0001879,97.2861,43.8917,95.2019,264.9438,0,U,69036,999,981,.32305192E-3,.10371E-3,0
STARLINK-37608,2026-101N,2026-07-08T07:36:59.930784,15.33437187,.00013301,97.2866,43.9028,92.1219,268.0176,0,U,69037,999,981,.31435177E-3,.10084E-3,0
STARLINK-37466,2026-101P,2026-07-08T00:53:42.564480,15.33439428,.00018309,97.2842,43.6710,84.6309,275.5143,0,U,69038,999,977,.33226402E-3,.10665E-3,0
STARLINK-37612,2026-101Q,2026-07-08T13:13:42.462624,15.33447373,.00017475,97.2857,44.0470,93.2848,266.8594,0,U,69039,999,984,.39206799E-3,.12605E-3,0
STARLINK-37616,2026-101R,2026-07-07T23:11:54.070656,15.33454756,.00013654,97.2876,43.4658,111.0857,249.0532,0,U,69040,999,975,.47773894E-3,.15384E-3,0
STARLINK-37614,2026-101S,2026-07-08T08:20:04.133184,15.33437386,.00020059,97.2860,43.8654,92.5100,267.6372,0,U,69041,999,981,.34555835E-3,.11095E-3,0
STARLINK-37644,2026-101T,2026-07-08T14:16:20.429760,15.33430647,.00015424,97.2861,44.1393,101.5161,258.6255,0,U,69042,999,985,.55636382E-3,.17921E-3,0
STARLINK-37571,2026-101U,2026-07-08T14:24:09.788256,15.33452402,.00018117,97.2841,44.1314,95.2946,264.8503,0,U,69043,999,985,.4931831E-3,.15884E-3,0
STARLINK-37664,2026-101V,2026-07-08T07:56:31.521696,15.33424952,.0000876,97.2859,43.8851,243.3890,116.7263,0,U,69044,999,981,.46212146E-3,.14864E-3,0
STARLINK-37667,2026-101W,2026-07-08T07:44:46.572864,15.33495935,.00015532,97.2865,43.9002,86.6152,273.5269,0,U,69045,999,981,.75889247E-3,.24544E-3,0
STARLINK-37666,2026-101X,2026-07-08T01:05:27.331872,15.33440390,.00022508,97.2838,43.6620,90.0157,270.1343,0,U,69046,999,977,.3322691E-3,.10666E-3,0
STARLINK-37576,2026-101Y,2026-07-08T13:29:22.234560,15.33448973,.00009686,97.2855,44.1866,85.0321,275.1033,0,U,69047,999,985,.47158332E-3,.15182E-3,0
STARLINK-37663,2026-101Z,2026-07-08T13:48:54.725760,15.33473361,.00043219,97.2865,44.1683,98.5405,261.6328,0,U,69048,999,985,.43407671E-3,.1398E-3,0
