PELICAN-9               
1 69019U 26100AR  26189.46588257  .00001484  00000+0  68685-4 0  9998
2 69019  97.3812  86.8696 0002617   3.6085 356.5170 15.21667123 10044
SELENE                  
1 69020U 26100AS  26189.50608479  .00004007  00000+0  18857-3 0  9993
2 69020  97.4016  86.8827 0002106 264.4757  95.6238 15.20113391 10043
HELIOS                  
1 69021U 26100AT  26189.50053299  .00004356  00000+0  20359-3 0  9995
2 69021  97.4000  86.8736 0002643 275.8708  84.2225 15.20303360 10041
HYDRA-3                 
1 69022U 26100AU  26189.43685976  .00003276  00000+0  15457-3 0  9994
2 69022  97.4003  86.8057 0002940 282.8275  77.2631 15.20159390 10032
QUBE-II                 
1 69023U 26100AV  26189.16291882  .00004343  00000+0  20160-3 0  9997
2 69023  97.4045  86.6083 0001207 312.5003  47.6130 15.20546847  9996
BALKAN-2                
1 69024U 26100AW  26189.42973247  .00002905  00000+0  13682-3 0  9992
2 69024  97.4043  86.8609 0001493 305.2626  54.8469 15.20305718 10030
STARLINK-37592          
1 69025U 26101A   26189.36086200  .00017670  00000+0  54827-3 0  9992
2 69025  97.2871  43.8450 0001346  76.6943 283.4450 15.33451472  9810
STARLINK-37637          
1 69026U 26101B   26189.32823105  .00017441  00000+0  54139-3 0  9994
2 69026  97.2866  43.8893 0001384  96.2583 263.8818 15.33441160  9819
STARLINK-37548          
1 69027U 26101C   26189.34454899  .00010357  00000+0  32274-3 0  9992
2 69027  97.2863  43.8687 0001853  97.4712 262.6741 15.33438550  9817
STARLINK-37634          
1 69028U 26101D   26189.57291747  .00023959  00000+0  74215-3 0  9992
2 69028  97.2846  44.1696 0001352  85.6327 274.5071 15.33442417  9857
STARLINK-37635          
1 69029U 26101E   26189.54847493  .00015946  00000+0  49512-3 0  9994
2 69029  97.2874  44.0499 0002030 103.8137 256.3332 15.33450140  9844
STARLINK-37615          
1 69030U 26101F   26189.59740027  .00013070  00000+0  40610-3 0  9992
2 69030  97.2836  44.1381 0002081 110.9531 249.1935 15.33472333  9856
STARLINK-37240          
1 69031U 26101G   26189.32007628  .00009999  00000+0  31169-3 0  9991
2 69031  97.2855  43.8999 0001549  89.3198 270.8222 15.33438686  9814
STARLINK-37596          
1 69032U 26101H   26189.56478794  .00012500  00000+0  38890-3 0  9994
2 69032  97.2847  44.1764 0003135  96.4322 263.7277 15.33439178  9853
STARLINK-37591          
1 69033U 26101J   26189.60283820  .00016611  00000+0  51540-3 0  9998
2 69033  97.2848  44.1274 0000969 114.7990 245.3354 15.33463839  9851
STARLINK-37611          
1 69034U 26101K   26189.34997791  .00010625  00000+0  33098-3 0  9996
2 69034  97.2858  43.8615 0002015  95.2271 264.9202 15.33444232  9818
STARLINK-37512          
1 69035U 26101L   26189.04816540  .00021042  00000+0  65144-3 0  9998
2 69035  97.2867  43.6550 0001775  85.5772 274.5673 15.33485883  9776
STARLINK-37609          
1 69036U 26101M   26189.32550300  .00010371  00000+0  32305-3 0  9995
2 69036  97.2861  43.8917 0001879  95.2019 264.9438 15.33452085  9812
STARLINK-37608          
1 69037U 26101N   26189.31736031  .00010084  00000+0  31435-3 0  9996
2 69037  97.2866  43.9028 0001330  92.1219 268.0176 15.33437187  9812
STARLINK-37466          
1 69038U 26101P   26189.03729820  .00010665  00000+0  33226-3 0  9999
2 69038  97.2842  43.6710 0001830  84.6309 275.5143 15.33439428  9775
STARLINK-37612          
1 69039U 26101Q   26189.55118591  .00012605  00000+0  39207-3 0  9995
2 69039  97.2857  44.0470 0001747  93.2848 266.8594 15.33447373  9840
STARLINK-37616          
1 69040U 26101R   26188.96659804  .00015384  00000+0  47774-3 0  9993
2 69040  97.2876  43.4658 0001365 111.0857 249.0532 15.33454756  9757
STARLINK-37614          
1 69041U 26101S   26189.34727006  .00011095  00000+0  34556-3 0  9996
2 69041  97.2860  43.8654 0002005  92.5100 267.6372 15.33437386  9812
STARLINK-37644          
1 69042U 26101T   26189.59468090  .00017921  00000+0  55636-3 0  9995
2 69042  97.2861  44.1393 0001542 101.5161 258.6255 15.33430647  9858
STARLINK-37571          
1 69043U 26101U   26189.60011329  .00015884  00000+0  49318-3 0  9993
2 69043  97.2841  44.1314 0001811  95.2946 264.8503 15.33452402  9857
STARLINK-37664          
1 69044U 26101V   26189.33092039  .00014864  00000+0  46212-3 0  9998
2 69044  97.2859  43.8851 0000876 243.3890 116.7263 15.33424952  9816
STARLINK-37667          
1 69045U 26101W   26189.32276126  .00024544  00000+0  75889-3 0  9997
2 69045  97.2865  43.9002 0001553  86.6152 273.5269 15.33495935  9812
STARLINK-37666          
1 69046U 26101X   26189.04545523  .00010666  00000+0  33227-3 0  9997
2 69046  97.2838  43.6620 0002250  90.0157 270.1343 15.33440390  9771
STARLINK-37576          
1 69047U 26101Y   26189.56206290  .00015182  00000+0  47158-3 0  9996
2 69047  97.2855  44.1866 0000968  85.0321 275.1033 15.33448973  9855
STARLINK-37663          
1 69048U 26101Z   26189.57563340  .00013980  00000+0  43408-3 0  9998
2 69048  97.2865  44.1683 0004321  98.5405 261.6328 15.33473361  9859
